[
    {
        "Altitude(m)": 565800.8695622123,
        "Argument of Periapsis(deg)": 0.026491964442854003,
        "Eccentricity": 0.0,
        "Inclination(deg)": 53.0,
        "Latitude(deg)": -38.256574791994346,
        "Longitude(deg)": 55.591697272740156,
        "Mean Anomaly(deg)": -50.54262852968967,
        "RAAN(deg)": 194.9605734741121,
        "Satellite Name": "Starlink Shell 1 874",
        "Satellite Number": 874,
        "Semi-Major Axis(m)": 6931778.249405717,
        "Time(s)": 760
    },
    {
        "Altitude(m)": 565634.1291924095,
        "Argument of Periapsis(deg)": 0.02684054292236524,
        "Eccentricity": 0.0,
        "Inclination(deg)": 53.0,
        "Latitude(deg)": -37.850988265148104,
        "Longitude(deg)": 56.154756314778226,
        "Mean Anomaly(deg)": -49.91579732613293,
        "RAAN(deg)": 194.96005470403458,
        "Satellite Name": "Starlink Shell 1 874",
        "Satellite Number": 874,
        "Semi-Major Axis(m)": 6931778.249405717,
        "Time(s)": 770
    },
    {
        "Altitude(m)": 565466.3529809187,
        "Argument of Periapsis(deg)": 0.027189121401876473,
        "Eccentricity": 0.0,
        "Inclination(deg)": 53.0,
        "Latitude(deg)": -37.442295767856685,
        "Longitude(deg)": 56.71122615416874,
        "Mean Anomaly(deg)": -49.288966122576184,
        "RAAN(deg)": 194.95953593395714,
        "Satellite Name": "Starlink Shell 1 874",
        "Satellite Number": 874,
        "Semi-Major Axis(m)": 6931778.249405717,
        "Time(s)": 780
    },
    {
        "Altitude(m)": 565297.6057762454,
        "Argument of Periapsis(deg)": 0.02753769988138771,
        "Eccentricity": 0.0,
        "Inclination(deg)": 53.0,
        "Latitude(deg)": -37.03057412549278,
        "Longitude(deg)": 57.26122633713625,
        "Mean Anomaly(deg)": -48.66213491901951,
        "RAAN(deg)": 194.95901716387962,
        "Satellite Name": "Starlink Shell 1 874",
        "Satellite Number": 874,
        "Semi-Major Axis(m)": 6931778.249405717,
        "Time(s)": 790
    },
    {
        "Altitude(m)": 565127.9527146878,
        "Argument of Periapsis(deg)": 0.02788627836089895,
        "Eccentricity": 0.0,
        "Inclination(deg)": 53.0,
        "Latitude(deg)": -36.61589848073121,
        "Longitude(deg)": 57.80487581674425,
        "Mean Anomaly(deg)": -48.03530371546277,
        "RAAN(deg)": 194.9584983938022,
        "Satellite Name": "Starlink Shell 1 874",
        "Satellite Number": 874,
        "Semi-Major Axis(m)": 6931778.249405717,
        "Time(s)": 800
    },
    {
        "Altitude(m)": 564957.4591913418,
        "Argument of Periapsis(deg)": 0.02823485684041019,
        "Eccentricity": 0.0,
        "Inclination(deg)": 53.0,
        "Latitude(deg)": -36.19834232012076,
        "Longitude(deg)": 58.34229331706121,
        "Mean Anomaly(deg)": -47.40847251190609,
        "RAAN(deg)": 194.95797962372473,
        "Satellite Name": "Starlink Shell 1 874",
        "Satellite Number": 874,
        "Semi-Major Axis(m)": 6931778.249405717,
        "Time(s)": 810
    },
    {
        "Altitude(m)": 564786.1908309701,
        "Argument of Periapsis(deg)": 0.028583435319921423,
        "Eccentricity": 0.0,
        "Inclination(deg)": 53.0,
        "Latitude(deg)": -35.77797750187703,
        "Longitude(deg)": 58.87359770885379,
        "Mean Anomaly(deg)": -46.78164130834932,
        "RAAN(deg)": 194.95746085364723,
        "Satellite Name": "Starlink Shell 1 874",
        "Satellite Number": 874,
        "Semi-Major Axis(m)": 6931778.249405717,
        "Time(s)": 820
    },
    {
        "Altitude(m)": 564614.2134587552,
        "Argument of Periapsis(deg)": 0.028932013799432665,
        "Eccentricity": 0.0,
        "Inclination(deg)": 53.0,
        "Latitude(deg)": -35.354874284726776,
        "Longitude(deg)": 59.39890688334792,
        "Mean Anomaly(deg)": -46.15481010479267,
        "RAAN(deg)": 194.95694208356977,
        "Satellite Name": "Starlink Shell 1 874",
        "Satellite Number": 874,
        "Semi-Major Axis(m)": 6931778.249405717,
        "Time(s)": 830
    },
    {
        "Altitude(m)": 564441.5930709456,
        "Argument of Periapsis(deg)": 0.029280592278943897,
        "Eccentricity": 0.0,
        "Inclination(deg)": 53.0,
        "Latitude(deg)": -34.92910135763827,
        "Longitude(deg)": 59.91833814922609,
        "Mean Anomaly(deg)": -45.52797890123593,
        "RAAN(deg)": 194.9564233134923,
        "Satellite Name": "Starlink Shell 1 874",
        "Satellite Number": 874,
        "Semi-Major Axis(m)": 6931778.249405717,
        "Time(s)": 840
    },
    {
        "Altitude(m)": 564268.3958054137,
        "Argument of Periapsis(deg)": 0.029629170758455132,
        "Eccentricity": 0.0,
        "Inclination(deg)": 53.0,
        "Latitude(deg)": -34.50072587029354,
        "Longitude(deg)": 60.43200863942266,
        "Mean Anomaly(deg)": -44.90114769767916,
        "RAAN(deg)": 194.95590454341482,
        "Satellite Name": "Starlink Shell 1 874",
        "Satellite Number": 874,
        "Semi-Major Axis(m)": 6931778.249405717,
        "Time(s)": 850
    },
    {
        "Altitude(m)": 564094.6879121301,
        "Argument of Periapsis(deg)": 0.02997774923796637,
        "Eccentricity": 0.0,
        "Inclination(deg)": 53.0,
        "Latitude(deg)": -34.06981346416694,
        "Longitude(deg)": 60.940034046201525,
        "Mean Anomaly(deg)": -44.27431649412249,
        "RAAN(deg)": 194.95538577333735,
        "Satellite Name": "Starlink Shell 1 874",
        "Satellite Number": 874,
        "Semi-Major Axis(m)": 6931778.249405717,
        "Time(s)": 860
    },
    {
        "Altitude(m)": 563920.5357235727,
        "Argument of Periapsis(deg)": 0.030326327717477602,
        "Eccentricity": 0.0,
        "Inclination(deg)": 53.0,
        "Latitude(deg)": -33.63642830407983,
        "Longitude(deg)": 61.44252988640369,
        "Mean Anomaly(deg)": -43.64748529056574,
        "RAAN(deg)": 194.95486700325986,
        "Satellite Name": "Starlink Shell 1 874",
        "Satellite Number": 874,
        "Semi-Major Axis(m)": 6931778.249405717,
        "Time(s)": 870
    },
    {
        "Altitude(m)": 563746.005625093,
        "Argument of Periapsis(deg)": 0.030674906196988847,
        "Eccentricity": 0.0,
        "Inclination(deg)": 53.0,
        "Latitude(deg)": -33.20063311012361,
        "Longitude(deg)": 61.939610253442055,
        "Mean Anomaly(deg)": -43.02065408700907,
        "RAAN(deg)": 194.95434823318237,
        "Satellite Name": "Starlink Shell 1 874",
        "Satellite Number": 874,
        "Semi-Major Axis(m)": 6931778.249405717,
        "Time(s)": 880
    },
    {
        "Altitude(m)": 563571.1640252426,
        "Argument of Periapsis(deg)": 0.031023484676500086,
        "Eccentricity": 0.0,
        "Inclination(deg)": 53.0,
        "Latitude(deg)": -32.76248918983943,
        "Longitude(deg)": 62.43138825796985,
        "Mean Anomaly(deg)": -42.39382288345232,
        "RAAN(deg)": 194.9538294631049,
        "Satellite Name": "Starlink Shell 1 874",
        "Satellite Number": 874,
        "Semi-Major Axis(m)": 6931778.249405717,
        "Time(s)": 890
    },
    {
        "Altitude(m)": 563396.0773260732,
        "Argument of Periapsis(deg)": 0.03137206315601132,
        "Eccentricity": 0.0,
        "Inclination(deg)": 53.0,
        "Latitude(deg)": -32.32205647056285,
        "Longitude(deg)": 62.91797647577324,
        "Mean Anomaly(deg)": -41.76699167989568,
        "RAAN(deg)": 194.95331069302748,
        "Satellite Name": "Starlink Shell 1 874",
        "Satellite Number": 874,
        "Semi-Major Axis(m)": 6931778.249405717,
        "Time(s)": 900
    },
    {
        "Altitude(m)": 563220.8118934159,
        "Argument of Periapsis(deg)": 0.03172064163552255,
        "Eccentricity": 0.0,
        "Inclination(deg)": 53.0,
        "Latitude(deg)": -31.87939353184589,
        "Longitude(deg)": 63.39948588955928,
        "Mean Anomaly(deg)": -41.140160476338885,
        "RAAN(deg)": 194.95279192294996,
        "Satellite Name": "Starlink Shell 1 874",
        "Satellite Number": 874,
        "Semi-Major Axis(m)": 6931778.249405717,
        "Time(s)": 910
    },
    {
        "Altitude(m)": 563045.4340271979,
        "Argument of Periapsis(deg)": 0.0320692201150338,
        "Eccentricity": 0.0,
        "Inclination(deg)": 53.0,
        "Latitude(deg)": -31.434557637876615,
        "Longitude(deg)": 63.876026349942265,
        "Mean Anomaly(deg)": -40.51332927278214,
        "RAAN(deg)": 194.95227315287252,
        "Satellite Name": "Starlink Shell 1 874",
        "Satellite Number": 874,
        "Semi-Major Axis(m)": 6931778.249405717,
        "Time(s)": 920
    },
    {
        "Altitude(m)": 562870.0099317412,
        "Argument of Periapsis(deg)": 0.032417798594545036,
        "Eccentricity": 0.0,
        "Inclination(deg)": 53.0,
        "Latitude(deg)": -30.98760476982492,
        "Longitude(deg)": 64.34770704233817,
        "Mean Anomaly(deg)": -39.886498069225496,
        "RAAN(deg)": 194.95175438279506,
        "Satellite Name": "Starlink Shell 1 874",
        "Satellite Number": 874,
        "Semi-Major Axis(m)": 6931778.249405717,
        "Time(s)": 930
    },
    {
        "Altitude(m)": 562694.6056861308,
        "Argument of Periapsis(deg)": 0.03276637707405627,
        "Eccentricity": 0.0,
        "Inclination(deg)": 53.0,
        "Latitude(deg)": -30.53858965805274,
        "Longitude(deg)": 64.81463544649529,
        "Mean Anomaly(deg)": -39.25966686566882,
        "RAAN(deg)": 194.95123561271757,
        "Satellite Name": "Starlink Shell 1 874",
        "Satellite Number": 874,
        "Semi-Major Axis(m)": 6931778.249405717,
        "Time(s)": 940
    }
]